SL-14 R/B               
1 16792U 86046B   26001.45082262  .00001036  00000+0  11660-3 0  9993
2 16792  82.4825 143.6992 0024575  90.3264 270.0768 14.85511169116422
SL-14 R/B               
1 16882U 86055B   26001.58315140  .00001049  00000+0  11833-3 0  9997
2 16882  82.5198 189.7262 0018586 189.9732 231.2728 14.85555035109402
AJISAI (EGS)            
1 16908U 86061A   26001.82728103 -.00000083  00000+0  99455-4 0  9992
2 16908  50.0106 298.9504 0011320 116.3100 346.5739 12.44514548459670
COSMOS 1812             
1 17295U 87003A   26001.77362845  .00178565  00000+0  93348-3 0  9994
2 17295  82.4865 270.2611 0005090  61.9671 298.2111 15.80329829133819
SL-14 R/B               
1 17567U 87024B   26001.77796818  .00001158  00000+0  12925-3 0  9995
2 17567  82.5286 155.6305 0019464 120.1626 240.1522 14.86051462 78194
COSMOS 1833             
1 17589U 87027A   26001.68080962  .00000342  00000+0  20863-3 0  9992
2 17589  70.9180 106.8599 0023479 303.9996  55.8894 14.13033784   855
SL-16 R/B               
1 17590U 87027B   26001.56626205 -.00000021  00000+0  13551-4 0  9999
2 17590  71.0032  57.9406 0007029 239.0717 120.9716 14.17156149  5836
SL-14 R/B               
1 17912U 87038B   26001.46901549  .00000989  00000+0  11198-3 0  9991
2 17912  82.5011   0.1158 0020113  31.0190 329.2208 14.85284554 69259
COSMOS 1844             
1 17973U 87041A   26001.71599004  .00000291  00000+0  17595-3 0  9992
2 17973  70.8985 175.4379 0028985 125.5023 234.8810 14.14537581994111
SL-14 R/B               
1 18153U 87055B   26001.65952087  .00000920  00000+0  10338-3 0  9992
2 18153  82.4984  52.2136 0019466 232.7233 127.2209 14.85545283 59981
COSMOS 1867             
1 18187U 87060A   26001.72320509  .00000076  00000+0  66132-4 0  9997
2 18187  65.0102 134.2406 0013837 273.1982  86.7520 14.31490353 10355
SL-14 R/B               
1 18749U 88001B   26001.78516958  .00000945  00000+0  10645-3 0  9990
2 18749  82.5129 258.2948 0019592  98.8021 261.5415 14.85448602 32090
