CCSDS_OMM_VERS = 2.0
CREATION_DATE  = 
ORIGINATOR     = 

OBJECT_NAME    = SL-14 R/B
OBJECT_ID      = 1986-046B
CENTER_NAME    = EARTH
REF_FRAME      = TEME
TIME_SYSTEM    = UTC
MEAN_ELEMENT_THEORY = SGP/SGP4

EPOCH          = 2026-01-01T10:49:11.074368
MEAN_MOTION    = 14.85511169
ECCENTRICITY   = .0024575
INCLINATION    = 82.4825
RA_OF_ASC_NODE = 143.6992
ARG_OF_PERICENTER = 90.3264
MEAN_ANOMALY   = 270.0768

EPHEMERIS_TYPE = 0
CLASSIFICATION_TYPE = U
NORAD_CAT_ID   = 16792
ELEMENT_SET_NO = 999
REV_AT_EPOCH   = 11642
BSTAR          = .1166E-3
MEAN_MOTION_DOT = .1036E-4
MEAN_MOTION_DDOT = 0

CCSDS_OMM_VERS = 2.0
CREATION_DATE  = 
ORIGINATOR     = 

OBJECT_NAME    = SL-14 R/B
OBJECT_ID      = 1986-055B
CENTER_NAME    = EARTH
REF_FRAME      = TEME
TIME_SYSTEM    = UTC
MEAN_ELEMENT_THEORY = SGP/SGP4

EPOCH          = 2026-01-01T13:59:44.280960
MEAN_MOTION    = 14.85555035
ECCENTRICITY   = .0018586
INCLINATION    = 82.5198
RA_OF_ASC_NODE = 189.7262
ARG_OF_PERICENTER = 189.9732
MEAN_ANOMALY   = 231.2728

EPHEMERIS_TYPE = 0
CLASSIFICATION_TYPE = U
NORAD_CAT_ID   = 16882
ELEMENT_SET_NO = 999
REV_AT_EPOCH   = 10940
BSTAR          = .11833E-3
MEAN_MOTION_DOT = .1049E-4
MEAN_MOTION_DDOT = 0

CCSDS_OMM_VERS = 2.0
CREATION_DATE  = 
ORIGINATOR     = 

OBJECT_NAME    = AJISAI (EGS)
OBJECT_ID      = 1986-061A
CENTER_NAME    = EARTH
REF_FRAME      = TEME
TIME_SYSTEM    = UTC
MEAN_ELEMENT_THEORY = SGP/SGP4

EPOCH          = 2026-01-01T19:51:17.080992
MEAN_MOTION    = 12.44514548
ECCENTRICITY   = .001132
INCLINATION    = 50.0106
RA_OF_ASC_NODE = 298.9504
ARG_OF_PERICENTER = 116.3100
MEAN_ANOMALY   = 346.5739

EPHEMERIS_TYPE = 0
CLASSIFICATION_TYPE = U
NORAD_CAT_ID   = 16908
ELEMENT_SET_NO = 999
REV_AT_EPOCH   = 45967
BSTAR          = .99455E-4
MEAN_MOTION_DOT = -.83E-6
MEAN_MOTION_DDOT = 0

CCSDS_OMM_VERS = 2.0
CREATION_DATE  = 
ORIGINATOR     = 

OBJECT_NAME    = COSMOS 1812
OBJECT_ID      = 1987-003A
CENTER_NAME    = EARTH
REF_FRAME      = TEME
TIME_SYSTEM    = UTC
MEAN_ELEMENT_THEORY = SGP/SGP4

EPOCH          = 2026-01-01T18:34:01.498080
MEAN_MOTION    = 15.80329829
ECCENTRICITY   = .000509
INCLINATION    = 82.4865
RA_OF_ASC_NODE = 270.2611
ARG_OF_PERICENTER = 61.9671
MEAN_ANOMALY   = 298.2111

EPHEMERIS_TYPE = 0
CLASSIFICATION_TYPE = U
NORAD_CAT_ID   = 17295
ELEMENT_SET_NO = 999
REV_AT_EPOCH   = 13381
BSTAR          = .93348E-3
MEAN_MOTION_DOT = .178565E-2
MEAN_MOTION_DDOT = 0

CCSDS_OMM_VERS = 2.0
CREATION_DATE  = 
ORIGINATOR     = 

OBJECT_NAME    = SL-14 R/B
OBJECT_ID      = 1987-024B
CENTER_NAME    = EARTH
REF_FRAME      = TEME
TIME_SYSTEM    = UTC
MEAN_ELEMENT_THEORY = SGP/SGP4

EPOCH          = 2026-01-01T18:40:16.450752
MEAN_MOTION    = 14.86051462
ECCENTRICITY   = .0019464
INCLINATION    = 82.5286
RA_OF_ASC_NODE = 155.6305
ARG_OF_PERICENTER = 120.1626
MEAN_ANOMALY   = 240.1522

EPHEMERIS_TYPE = 0
CLASSIFICATION_TYPE = U
NORAD_CAT_ID   = 17567
ELEMENT_SET_NO = 999
REV_AT_EPOCH   = 7819
BSTAR          = .12925E-3
MEAN_MOTION_DOT = .1158E-4
MEAN_MOTION_DDOT = 0

CCSDS_OMM_VERS = 2.0
CREATION_DATE  = 
ORIGINATOR     = 

OBJECT_NAME    = COSMOS 1833
OBJECT_ID      = 1987-027A
CENTER_NAME    = EARTH
REF_FRAME      = TEME
TIME_SYSTEM    = UTC
MEAN_ELEMENT_THEORY = SGP/SGP4

EPOCH          = 2026-01-01T16:20:21.951168
MEAN_MOTION    = 14.13033784
ECCENTRICITY   = .0023479
INCLINATION    = 70.9180
RA_OF_ASC_NODE = 106.8599
ARG_OF_PERICENTER = 303.9996
MEAN_ANOMALY   = 55.8894

EPHEMERIS_TYPE = 0
CLASSIFICATION_TYPE = U
NORAD_CAT_ID   = 17589
ELEMENT_SET_NO = 999
REV_AT_EPOCH   = 85
BSTAR          = .20863E-3
MEAN_MOTION_DOT = .342E-5
MEAN_MOTION_DDOT = 0

CCSDS_OMM_VERS = 2.0
CREATION_DATE  = 
ORIGINATOR     = 

OBJECT_NAME    = SL-16 R/B
OBJECT_ID      = 1987-027B
CENTER_NAME    = EARTH
REF_FRAME      = TEME
TIME_SYSTEM    = UTC
MEAN_ELEMENT_THEORY = SGP/SGP4

EPOCH          = 2026-01-01T13:35:25.041120
MEAN_MOTION    = 14.17156149
ECCENTRICITY   = .0007029
INCLINATION    = 71.0032
RA_OF_ASC_NODE = 57.9406
ARG_OF_PERICENTER = 239.0717
MEAN_ANOMALY   = 120.9716

EPHEMERIS_TYPE = 0
CLASSIFICATION_TYPE = U
NORAD_CAT_ID   = 17590
ELEMENT_SET_NO = 999
REV_AT_EPOCH   = 583
BSTAR          = .13551E-4
MEAN_MOTION_DOT = -.21E-6
MEAN_MOTION_DDOT = 0

CCSDS_OMM_VERS = 2.0
CREATION_DATE  = 
ORIGINATOR     = 

OBJECT_NAME    = SL-14 R/B
OBJECT_ID      = 1987-038B
CENTER_NAME    = EARTH
REF_FRAME      = TEME
TIME_SYSTEM    = UTC
MEAN_ELEMENT_THEORY = SGP/SGP4

EPOCH          = 2026-01-01T11:15:22.938336
MEAN_MOTION    = 14.85284554
ECCENTRICITY   = .0020113
INCLINATION    = 82.5011
RA_OF_ASC_NODE = 0.1158
ARG_OF_PERICENTER = 31.0190
MEAN_ANOMALY   = 329.2208

EPHEMERIS_TYPE = 0
CLASSIFICATION_TYPE = U
NORAD_CAT_ID   = 17912
ELEMENT_SET_NO = 999
REV_AT_EPOCH   = 6925
BSTAR          = .11198E-3
MEAN_MOTION_DOT = .989E-5
MEAN_MOTION_DDOT = 0

CCSDS_OMM_VERS = 2.0
CREATION_DATE  = 
ORIGINATOR     = 

OBJECT_NAME    = COSMOS 1844
OBJECT_ID      = 1987-041A
CENTER_NAME    = EARTH
REF_FRAME      = TEME
TIME_SYSTEM    = UTC
MEAN_ELEMENT_THEORY = SGP/SGP4

EPOCH          = 2026-01-01T17:11:01.539456
MEAN_MOTION    = 14.14537581
ECCENTRICITY   = .0028985
INCLINATION    = 70.8985
RA_OF_ASC_NODE = 175.4379
ARG_OF_PERICENTER = 125.5023
MEAN_ANOMALY   = 234.8810

EPHEMERIS_TYPE = 0
CLASSIFICATION_TYPE = U
NORAD_CAT_ID   = 17973
ELEMENT_SET_NO = 999
REV_AT_EPOCH   = 99411
BSTAR          = .17595E-3
MEAN_MOTION_DOT = .291E-5
MEAN_MOTION_DDOT = 0

CCSDS_OMM_VERS = 2.0
CREATION_DATE  = 
ORIGINATOR     = 

OBJECT_NAME    = SL-14 R/B
OBJECT_ID      = 1987-055B
CENTER_NAME    = EARTH
REF_FRAME      = TEME
TIME_SYSTEM    = UTC
MEAN_ELEMENT_THEORY = SGP/SGP4

EPOCH          = 2026-01-01T15:49:42.603168
MEAN_MOTION    = 14.85545283
ECCENTRICITY   = .0019466
INCLINATION    = 82.4984
RA_OF_ASC_NODE = 52.2136
ARG_OF_PERICENTER = 232.7233
MEAN_ANOMALY   = 127.2209

EPHEMERIS_TYPE = 0
CLASSIFICATION_TYPE = U
NORAD_CAT_ID   = 18153
ELEMENT_SET_NO = 999
REV_AT_EPOCH   = 5998
BSTAR          = .10338E-3
MEAN_MOTION_DOT = .92E-5
MEAN_MOTION_DDOT = 0

CCSDS_OMM_VERS = 2.0
CREATION_DATE  = 
ORIGINATOR     = 

OBJECT_NAME    = COSMOS 1867
OBJECT_ID      = 1987-060A
CENTER_NAME    = EARTH
REF_FRAME      = TEME
TIME_SYSTEM    = UTC
MEAN_ELEMENT_THEORY = SGP/SGP4

EPOCH          = 2026-01-01T17:21:24.919776
MEAN_MOTION    = 14.31490353
ECCENTRICITY   = .0013837
INCLINATION    = 65.0102
RA_OF_ASC_NODE = 134.2406
ARG_OF_PERICENTER = 273.1982
MEAN_ANOMALY   = 86.7520

EPHEMERIS_TYPE = 0
CLASSIFICATION_TYPE = U
NORAD_CAT_ID   = 18187
ELEMENT_SET_NO = 999
REV_AT_EPOCH   = 1035
BSTAR          = .66132E-4
MEAN_MOTION_DOT = .76E-6
MEAN_MOTION_DDOT = 0

CCSDS_OMM_VERS = 2.0
CREATION_DATE  = 
ORIGINATOR     = 

OBJECT_NAME    = SL-14 R/B
OBJECT_ID      = 1988-001B
CENTER_NAME    = EARTH
REF_FRAME      = TEME
TIME_SYSTEM    = UTC
MEAN_ELEMENT_THEORY = SGP/SGP4

EPOCH          = 2026-01-01T18:50:38.651712
MEAN_MOTION    = 14.85448602
ECCENTRICITY   = .0019592
INCLINATION    = 82.5129
RA_OF_ASC_NODE = 258.2948
ARG_OF_PERICENTER = 98.8021
MEAN_ANOMALY   = 261.5415

EPHEMERIS_TYPE = 0
CLASSIFICATION_TYPE = U
NORAD_CAT_ID   = 18749
ELEMENT_SET_NO = 999
REV_AT_EPOCH   = 3209
BSTAR          = .10645E-3
MEAN_MOTION_DOT = .945E-5
MEAN_MOTION_DDOT = 0

